GLOBALSTAR M094         
1 39074U 13005C   24236.68235654 -.00000089  00000+0  80373-4 0  9990
2 39074  51.9983   7.9308 0000631  76.2426 283.8511 12.62267051534826
GLOBALSTAR M078         
1 39076U 13005E   24236.43156658  .00000005  00000+0  60616-3 0  9995
2 39076  51.9868 141.8920 0000431 237.5982 122.4843 12.62275665532313
GLOBALSTAR M095         
1 39077U 13005F   24236.45795433 -.00000061  00000+0  24036-3 0  9997
2 39077  51.9793 139.1564 0000451 340.0555  20.0294 12.62263584532177
GLOBALSTAR M087         
1 52888U 22064A   24236.65803762 -.00000057  00000+0  13613-3 0  9998
2 52888  51.9776 333.1132 0009641 172.2288 187.8763 13.37582720106559
